[{"OBJECT_NAME":"STARLINK-31193","OBJECT_ID":"2024-012L","EPOCH":"2026-03-09T08:11:48.671520","MEAN_MOTION":15.27580624,"ECCENTRICITY":0.00015256,"INCLINATION":43.0014,"RA_OF_ASC_NODE":167.1338,"ARG_OF_PERICENTER":274.8459,"MEAN_ANOMALY":85.2219,"EPHEMERIS_TYPE":0,"CLASSIFICATION_TYPE":"U","NORAD_CAT_ID":58797,"ELEMENT_SET_NO":999,"REV_AT_EPOCH":12118,"BSTAR":-9.4977982e-5,"MEAN_MOTION_DOT":-2.875e-5,"MEAN_MOTION_DDOT":0},{"OBJECT_NAME":"FLOCK 4G-24","OBJECT_ID":"2025-009AE","EPOCH":"2026-03-09T17:24:07.838208","MEAN_MOTION":15.27784978,"ECCENTRICITY":0.0001802,"INCLINATION":97.4061,"RA_OF_ASC_NODE":151.514,"ARG_OF_PERICENTER":280.2808,"MEAN_ANOMALY":79.8228,"EPHEMERIS_TYPE":0,"CLASSIFICATION_TYPE":"U","NORAD_CAT_ID":62637,"ELEMENT_SET_NO":999,"REV_AT_EPOCH":6373,"BSTAR":0.00038996067,"MEAN_MOTION_DOT":0.00010513,"MEAN_MOTION_DDOT":0}]
